GSAT0222 (GALILEO 26)   
1 43565U 18060B   24100.35457114 -.00000101  00000+0  00000+0 0  9996
2 43565  57.3058   3.3236 0002359 285.2807  74.7229  1.70474987 35591
GSAT0219 (GALILEO 23)   
1 43566U 18060C   24097.64362558 -.00000093  00000+0  00000+0 0  9991
2 43566  57.3050   3.3986 0003768 324.9870  35.0130  1.70475216 35522
GSAT0220 (GALILEO 24)   
1 43567U 18060D   24101.38370121 -.00000104  00000+0  00000+0 0  9997
2 43567  57.3049   3.2975 0004088 312.0741  47.9219  1.70475151 35572
BEIDOU-3 M13            
1 43622U 18072A   24102.15913888 -.00000005  00000+0  00000+0 0  9991
2 43622  55.9421  89.1140 0009096 298.7238  61.1704  1.86231336 37812
BEIDOU-3 M14            
1 43623U 18072B   24101.48764516 -.00000002  00000+0  00000+0 0  9996
2 43623  55.9434  89.1294 0006758 317.3159  42.6196  1.86231287 37790
GPS BIII-1              
1 43873U 18109A   24101.52017757  .00000036  00000+0  00000+0 0  9993
2 43873  55.2698 123.7002 0028561 195.7118 336.7996  2.00552817 39073
METEOR-M2 2             
1 44387U 19038A   24102.53442937  .00000059  00000+0  45225-4 0  9998
2 44387  98.8214  71.5181 0002003 122.3326 237.8046 14.23868264247903
GPS BIII-2              
1 44506U 19056A   24101.16184476 -.00000101  00000+0  00000+0 0  9996
2 44506  55.8403   2.7758 0039742 189.0444 342.6213  2.00570592 34064
BEIDOU-3 M23            
1 44542U 19061A   24101.32820852  .00000012  00000+0  00000+0 0  9995
2 44542  54.4512 209.6517 0007339 359.7363   0.2648  1.86231072 30935
BEIDOU-3 M24            
1 44543U 19061B   24101.62895649  .00000013  00000+0  00000+0 0  9996
2 44543  54.4500 209.6104 0004189 346.6728 127.1364  1.86231402 30936
BEIDOU-3 M21            
1 44793U 19078A   24100.63712456 -.00000078  00000+0  00000+0 0  9997
2 44793  54.6114 327.7417 0007166  25.6835 334.3949  1.86231987 29775
BEIDOU-3 M22            
1 44794U 19078B   24100.23014511 -.00000076  00000+0  00000+0 0  9999
2 44794  54.5851 327.7333 0004960  21.2645 338.8002  1.86232462 29778
ELEKTRO-L 3             
1 44903U 19095A   24102.53367132 -.00000104  00000+0  00000+0 0  9997
2 44903   0.0495 317.5903 0000966  61.1113  89.5919  1.00272319 15701
GPS BIII-3              
1 45854U 20041A   24102.17462539 -.00000053  00000+0  00000+0 0  9996
2 45854  56.0704  60.0588 0040941 193.7705 287.3339  2.00559368 28044
COSMOS 2547             
1 46805U 20075A   24101.20103229  .00000015  00000+0  00000+0 0  9998
2 46805  64.6028 219.1531 0006811 236.9126 123.0104  2.13103039 26908
GPS BIII-4              
1 46826U 20078A   24101.77437184 -.00000001  00000+0  00000+0 0  9992
2 46826  54.2105 243.1450 0043200 194.4158 335.3944  2.00560527 25516
GSAT0223 (GALILEO 27)   
1 49809U 21116A   24100.94528319 -.00000102  00000+0  00000+0 0  9991
2 49809  57.2957   3.2040 0000570 283.6504 257.6713  1.70475142 14575
GSAT0224 (GALILEO 28)   
1 49810U 21116B   24101.35358459 -.00000104  00000+0  00000+0 0  9997
2 49810  57.2966   3.1915 0000687 346.8136 197.5909  1.70475204 14601
GOES 18                 
1 51850U 22021A   24102.47688382  .00000089  00000+0  00000+0 0  9996
2 51850   0.0074  88.7145 0000354 234.4184 271.7041  1.00272211  7817
